{
  "type": "FeatureCollection",
  "features": [
    {
      "type": "Feature",
      "geometry": {
        "type": "Point",
        "coordinates": [
          -99.85,
          32.42
        ]
      },
      "properties": {
        "site_id": "site_48378",
        "name": "Abilene, Taylor County TX (Stargate area)",
        "radius_km": 10.0,
        "country": "United States",
        "admin1": "Texas",
        "admin2": "Taylor County",
        "utility": null,
        "market": "ERCOT",
        "origin": "manual",
        "hypothesis": null,
        "notes": null
      }
    }
  ]
}