{
  "type": "FeatureCollection",
  "features": [
    {
      "type": "Feature",
      "geometry": {
        "type": "Point",
        "coordinates": [
          -77.4875,
          39.0437
        ]
      },
      "properties": {
        "site_id": "site_69074",
        "name": "Ashburn, Loudoun County VA",
        "radius_km": 10.0,
        "country": "United States",
        "admin1": "Virginia",
        "admin2": "Loudoun County",
        "utility": null,
        "market": "PJM",
        "origin": "manual",
        "hypothesis": null,
        "notes": null
      }
    }
  ]
}