{
  "type": "FeatureCollection",
  "features": [
    {
      "type": "Feature",
      "geometry": {
        "type": "Point",
        "coordinates": [
          -77.51,
          37.74
        ]
      },
      "properties": {
        "site_id": "site_35273",
        "name": "Hanover Ashland VA (APPROVED 2024)",
        "radius_km": 10.0,
        "country": "United States",
        "admin1": "Virginia",
        "admin2": "Hanover County",
        "utility": null,
        "market": "PJM",
        "origin": "manual",
        "hypothesis": null,
        "notes": null
      }
    }
  ]
}