{
  "type": "FeatureCollection",
  "features": [
    {
      "type": "Feature",
      "geometry": {
        "type": "Point",
        "coordinates": [
          73.0,
          19.1
        ]
      },
      "properties": {
        "site_id": "site_46814",
        "name": "Navi Mumbai, Maharashtra IN",
        "radius_km": 10.0,
        "country": "India",
        "admin1": "Maharashtra",
        "admin2": "Thane Subdistrict",
        "utility": null,
        "market": "DISCOM / Maharashtra SERC",
        "origin": "manual",
        "hypothesis": null,
        "notes": null
      }
    }
  ]
}